CCSDS_OMM_VERS,COMMENT,CREATION_DATE,ORIGINATOR,OBJECT_NAME,OBJECT_ID,CENTER_NAME,REF_FRAME,TIME_SYSTEM,MEAN_ELEMENT_THEORY,EPOCH,MEAN_MOTION,ECCENTRICITY,INCLINATION,RA_OF_ASC_NODE,ARG_OF_PERICENTER,MEAN_ANOMALY,EPHEMERIS_TYPE,CLASSIFICATION_TYPE,NORAD_CAT_ID,ELEMENT_SET_NO,REV_AT_EPOCH,BSTAR,MEAN_MOTION_DOT,MEAN_MOTION_DDOT,SEMIMAJOR_AXIS,PERIOD,APOAPSIS,PERIAPSIS,OBJECT_TYPE,RCS_SIZE,COUNTRY_CODE,LAUNCH_DATE,SITE,DECAY_DATE,FILE,GP_ID,TLE_LINE0,TLE_LINE1,TLE_LINE2,,,,,,,AVG_ALTITUDE,,AVG_VELOCITY
2,GENERATED VIA SPACE-TRACK.ORG API,2022-06-03T07:16:12,18 SPCS,STARLINK-1278,2020-019BA,EARTH,TEME,UTC,SGP4,2022-06-02T21:36:40.855968,15.06393794,0.0001731,53.054,222.7639,66.6349,293.4822,0,U,45408,999,12208,-9.87E-05,-1.75E-05,0,6925.368,95.593,548.431,546.034,PAYLOAD,LARGE,US,3/18/2020,AFETR,,3478472,205226013,0 STARLINK-1278,1 45408U 20019BA  22153.90047287 -.00001751  00000-0 -98684-4 0  9998,2 45408  53.0540 222.7639 0001731  66.6349 293.4822 15.06393794122087,,,,,,,555.368,,7.586605327
2,GENERATED VIA SPACE-TRACK.ORG API,2022-06-03T02:31:39,18 SPCS,STARLINK-1282,2020-019BB,EARTH,TEME,UTC,SGP4,2022-06-02T19:54:30.486528,15.06400391,0.0001573,53.0535,193.08,60.4865,299.6281,0,U,45409,999,12249,2.75E-05,1.27E-06,0,6925.347,95.592,548.302,546.123,PAYLOAD,LARGE,US,3/18/2020,AFETR,,3477983,205209565,0 STARLINK-1282,1 45409U 20019BB  22153.82951952  .00000127  00000-0  27454-4 0  9994,2 45409  53.0535 193.0800 0001573  60.4865 299.6281 15.06400391122495,,,,,,,555.347,,7.58661683
2,GENERATED VIA SPACE-TRACK.ORG API,2022-06-03T07:16:12,18 SPCS,STARLINK-1293,2020-019BD,EARTH,TEME,UTC,SGP4,2022-06-03T02:37:53.756544,15.06405212,0.0001572,53.0539,191.8257,71.4196,288.6964,0,U,45411,999,12253,7.02E-05,7.64E-06,0,6925.333,95.592,548.286,546.109,PAYLOAD,LARGE,US,3/18/2020,AFETR,,3478466,205226036,0 STARLINK-1293,1 45411U 20019BD  22154.10964996  .00000764  00000-0  70156-4 0  9995,2 45411  53.0539 191.8257 0001572  71.4196 288.6964 15.06405212122530,,,,,,,555.333,,7.586624498
2,GENERATED VIA SPACE-TRACK.ORG API,2022-06-03T07:16:12,18 SPCS,STARLINK-1296,2020-019BE,EARTH,TEME,UTC,SGP4,2022-06-02T19:27:57.792384,15.06399159,0.0001677,53.0532,193.1777,60.2154,299.9002,0,U,45412,999,12248,3.90E-05,2.99E-06,0,6925.351,95.592,548.378,546.055,PAYLOAD,LARGE,US,3/18/2020,AFETR,,3478468,205226064,0 STARLINK-1296,1 45412U 20019BE  22153.81108556  .00000299  00000-0  39007-4 0  9998,2 45412  53.0532 193.1777 0001677  60.2154 299.9002 15.06399159122486,,,,,,,555.351,,7.586614639
2,GENERATED VIA SPACE-TRACK.ORG API,2022-06-02T17:55:29,18 SPCS,STARLINK-1298,2020-019BF,EARTH,TEME,UTC,SGP4,2022-06-02T10:37:11.294112,15.06400854,0.0001362,53.0532,194.8258,63.6254,296.4875,0,U,45413,999,12252,0.00012119,1.52E-05,0,6925.346,95.592,548.154,546.268,PAYLOAD,LARGE,US,3/18/2020,AFETR,,3477482,205173483,0 STARLINK-1298,1 45413U 20019BF  22153.44249183  .00001524  00000-0  12119-3 0  9996,2 45413  53.0532 194.8258 0001362  63.6254 296.4875 15.06400854122528,,,,,,,555.346,,7.586617377
2,GENERATED VIA SPACE-TRACK.ORG API,2022-06-03T07:16:12,18 SPCS,STARLINK-1309,2020-019BG,EARTH,TEME,UTC,SGP4,2022-06-03T03:46:54.827328,15.06397281,0.000151,53.0533,191.6115,58.2085,301.9051,0,U,45414,999,12254,0.00010529,1.29E-05,0,6925.357,95.592,548.268,546.176,PAYLOAD,LARGE,US,3/18/2020,AFETR,,3478475,205226092,0 STARLINK-1309,1 45414U 20019BG  22154.15757902  .00001287  00000-0  10529-3 0  9998,2 45414  53.0533 191.6115 0001510  58.2085 301.9051 15.06397281122543,,,,,,,555.357,,7.586611352
2,GENERATED VIA SPACE-TRACK.ORG API,2022-06-03T02:31:39,18 SPCS,STARLINK-1316,2020-019BH,EARTH,TEME,UTC,SGP4,2022-06-02T17:15:15.847488,15.06405379,0.0001421,53.0538,193.5914,71.6541,288.4602,0,U,45415,999,12249,3.36E-05,2.19E-06,0,6925.332,95.592,548.181,546.213,PAYLOAD,LARGE,US,3/18/2020,AFETR,,3477983,205210315,0 STARLINK-1316,1 45415U 20019BH  22153.71893342  .00000219  00000-0  33583-4 0  9999,2 45415  53.0538 193.5914 0001421  71.6541 288.4602 15.06405379122497,,,,,,,555.332,,7.586625046
2,GENERATED VIA SPACE-TRACK.ORG API,2022-06-03T02:31:39,18 SPCS,STARLINK-1318,2020-019BJ,EARTH,TEME,UTC,SGP4,2022-06-02T19:38:35.806272,15.06391946,0.0001542,53.053,193.1559,72.8126,287.3032,0,U,45416,999,12249,-4.29E-06,-3.45E-06,0,6925.373,95.593,548.306,546.17,PAYLOAD,LARGE,US,3/18/2020,AFETR,,3477983,205208564,0 STARLINK-1318,1 45416U 20019BJ  22153.81846998 -.00000345  00000-0 -42853-5 0  9999,2 45416  53.0530 193.1559 0001542  72.8126 287.3032 15.06391946122496,,,,,,,555.373,,7.586602588
2,GENERATED VIA SPACE-TRACK.ORG API,2022-06-03T02:31:39,18 SPCS,STARLINK-1286,2020-019BK,EARTH,TEME,UTC,SGP4,2022-06-02T16:34:08.177088,15.06398755,0.0001441,53.0529,223.7155,78.733,281.3821,0,U,45417,999,12232,4.60E-05,4.04E-06,0,6925.352,95.592,548.215,546.219,PAYLOAD,LARGE,US,3/18/2020,AFETR,,3477983,205208814,0 STARLINK-1286,1 45417U 20019BK  22153.69037242  .00000404  00000-0  46013-4 0  9995,2 45417  53.0529 223.7155 0001441  78.7330 281.3821 15.06398755122324,,,,,,,555.352,,7.586614091
2,GENERATED VIA SPACE-TRACK.ORG API,2022-06-03T02:31:39,18 SPCS,STARLINK-1299,2020-019BL,EARTH,TEME,UTC,SGP4,2022-06-02T18:25:02.426016,15.0575393,8.96E-05,52.9982,244.9802,2.7424,357.3568,0,U,45418,999,12173,0.00048986,6.90E-05,0,6927.329,95.633,549.815,548.574,PAYLOAD,LARGE,US,3/18/2020,AFETR,,3477983,205209566,0 STARLINK-1299,1 45418U 20019BL  22153.76738919  .00006898  00000-0  48986-3 0  9996,2 45418  52.9982 244.9802 0000896   2.7424 357.3568 15.05753930121739,,,,,,,557.329,,7.585531436
2,GENERATED VIA SPACE-TRACK.ORG API,2022-06-03T02:31:39,18 SPCS,STARLINK-1308,2020-019BM,EARTH,TEME,UTC,SGP4,2022-06-02T13:17:44.879424,15.06406525,0.0001395,53.0529,224.341,73.5789,286.5353,0,U,45419,999,12205,9.65E-05,1.16E-05,0,6925.329,95.592,548.16,546.227,PAYLOAD,LARGE,US,3/18/2020,AFETR,,3477983,205209815,0 STARLINK-1308,1 45419U 20019BM  22153.55399166  .00001157  00000-0  96530-4 0  9993,2 45419  53.0529 224.3410 0001395  73.5789 286.5353 15.06406525122058,,,,,,,555.329,,7.586626689
2,GENERATED VIA SPACE-TRACK.ORG API,2022-06-03T06:36:13,18 SPCS,ONEWEB-0066,2020-020A,EARTH,TEME,UTC,SGP4,2022-06-03T04:13:13.162656,13.11417979,0.0001155,87.8832,314.3087,102.8017,257.3239,0,U,45424,999,10936,-0.0013101,-4.52E-06,0,7595.816,109.805,1218.558,1216.803,PAYLOAD,LARGE,UK,3/21/2020,TTMTR,,3478112,205217987,0 ONEWEB-0066,1 45424U 20020A   22154.17584679 -.00000452  00000-0 -13101-2 0  9995,2 45424  87.8832 314.3087 0001155 102.8017 257.3239 13.11417979109367,,,,,,,1225.816,,7.244054376
2,GENERATED VIA SPACE-TRACK.ORG API,2022-06-03T02:31:39,18 SPCS,ONEWEB-0067,2020-020B,EARTH,TEME,UTC,SGP4,2022-06-02T17:49:34.811328,13.11418419,0.0001557,87.8831,314.398,91.141,268.9896,0,U,45425,999,10935,0.001886,6.81E-06,0,7595.814,109.805,1218.862,1216.496,PAYLOAD,LARGE,UK,3/21/2020,TTMTR,,3477983,205209315,0 ONEWEB-0067,1 45425U 20020B   22153.74276402  .00000681  00000-0  18860-2 0  9999,2 45425  87.8831 314.3980 0001557  91.1410 268.9896 13.11418419109358,,,,,,,1225.814,,7.24405533
2,GENERATED VIA SPACE-TRACK.ORG API,2022-06-03T06:46:12,18 SPCS,ONEWEB-0080,2020-020C,EARTH,TEME,UTC,SGP4,2022-06-03T03:37:34.634784,13.11416444,0.0001803,87.8831,314.3099,104.7096,255.4232,0,U,45426,999,10938,-0.00089742,-3.05E-06,0,7595.822,109.805,1219.056,1216.317,PAYLOAD,LARGE,UK,3/21/2020,TTMTR,,3478207,205219267,0 ONEWEB-0080,1 45426U 20020C   22154.15109531 -.00000305  00000-0 -89742-3 0  9997,2 45426  87.8831 314.3099 0001803 104.7096 255.4232 13.11416444109389,,,,,,,1225.822,,7.244051515
2,GENERATED VIA SPACE-TRACK.ORG API,2022-06-03T06:46:12,18 SPCS,ONEWEB-0090,2020-020D,EARTH,TEME,UTC,SGP4,2022-06-03T04:00:18.015552,13.11417065,0.0001677,87.884,314.3517,97.8878,262.244,0,U,45427,999,10935,-0.00181,-6.29E-06,0,7595.819,109.805,1218.958,1216.41,PAYLOAD,LARGE,UK,3/21/2020,TTMTR,,3478191,205219254,0 ONEWEB-0090,1 45427U 20020D   22154.16687518 -.00000629  00000-0 -18100-2 0  9993,2 45427  87.8840 314.3517 0001677  97.8878 262.2440 13.11417065109358,,,,,,,1225.819,,7.244052946
2,GENERATED VIA SPACE-TRACK.ORG API,2022-06-03T02:31:39,18 SPCS,ONEWEB-0061,2020-020E,EARTH,TEME,UTC,SGP4,2022-06-02T17:46:22.226592,13.11418614,0.0001609,87.8833,314.3775,87.1854,272.9458,0,U,45428,999,10924,0.0014164,5.15E-06,0,7595.813,109.805,1218.9,1216.456,PAYLOAD,LARGE,UK,3/21/2020,TTMTR,,3477983,205208565,0 ONEWEB-0061,1 45428U 20020E   22153.74053503  .00000515  00000-0  14164-2 0  9996,2 45428  87.8833 314.3775 0001609  87.1854 272.9458 13.11418614109244,,,,,,,1225.813,,7.244055807
2,GENERATED VIA SPACE-TRACK.ORG API,2022-06-03T02:31:39,18 SPCS,ONEWEB-0081,2020-020F,EARTH,TEME,UTC,SGP4,2022-06-02T17:20:30.083424,13.11419375,0.0001481,87.8846,314.3849,83.9377,276.192,0,U,45429,999,10935,4.55E-06,1.40E-07,0,7595.81,109.805,1218.8,1216.55,PAYLOAD,MEDIUM,UK,3/21/2020,TTMTR,,3477983,205208815,0 ONEWEB-0081,1 45429U 20020F   22153.72257041  .00000014  00000-0  45459-5 0  9996,2 45429  87.8846 314.3849 0001481  83.9377 276.1920 13.11419375109350,,,,,,,1225.81,,7.244057237
2,GENERATED VIA SPACE-TRACK.ORG API,2022-06-03T02:31:39,18 SPCS,ONEWEB-0069,2020-020G,EARTH,TEME,UTC,SGP4,2022-06-02T17:04:20.091360,13.11418159,0.0001484,87.8834,314.4127,96.9918,263.1379,0,U,45430,999,10928,-0.001052,-3.60E-06,0,7595.815,109.805,1218.807,1216.553,PAYLOAD,LARGE,UK,3/21/2020,TTMTR,,3477983,205209567,0 ONEWEB-0069,1 45430U 20020G   22153.71134365 -.00000360  00000-0 -10520-2 0  9994,2 45430  87.8834 314.4127 0001484  96.9918 263.1379 13.11418159109282,,,,,,,1225.815,,7.244054853
2,GENERATED VIA SPACE-TRACK.ORG API,2022-06-03T07:06:16,18 SPCS,ONEWEB-0031,2020-020H,EARTH,TEME,UTC,SGP4,2022-06-03T03:24:47.411424,13.11417015,0.0001866,87.8829,314.3111,95.0496,265.0845,0,U,45431,999,10933,0.00015489,6.80E-07,0,7595.819,109.805,1219.102,1216.267,PAYLOAD,MEDIUM,UK,3/21/2020,TTMTR,,3478371,205223642,0 ONEWEB-0031,1 45431U 20020H   22154.14221541  .00000068  00000-0  15489-3 0  9999,2 45431  87.8829 314.3111 0001866  95.0496 265.0845 13.11417015109339,,,,,,,1225.819,,7.244052946
